SatCatId,ObjectName,LaunchYear,OrbitalPeriod,LaunchMass,StatusCode,Inclination,Status,UcsData,OrbitClassEstimated,LaunchSiteCountry,Owner,UseType,Purpose,LaunchVehicleClass,TLE1,TLE2,MeanMotion,Eccentricity,OrbitClass
47686,FLOCK 4S-44,2021,94.16,4.0,+,97.39,Active,1,LEO,USA,USA,Commercial,Earth Observation,Falcon,1 47686U 21006EM  23138.73352730  .00011451  00000+0  40148-3 0  9998,2 47686  97.3930 198.0260 0009691 180.6890 179.4338 15.29571017128225,15.29571017,0.0009691,LEO
47687,FLOCK 4S-43,2021,94.27,4.0,+,97.39,Active,1,LEO,USA,USA,Commercial,Earth Observation,Falcon,1 47687U 21006EN  23139.62732076  .00039501  00000+0  14319-2 0  9999,2 47687  97.3902 198.2274 0005371 180.1213 180.0026 15.28235973129306,15.28235973,0.0005371,LEO
47688,FLOCK 4S-45,2021,94.16,4.0,+,97.39,Active,1,LEO,USA,USA,Commercial,Earth Observation,Falcon,1 47688U 21006EP  23139.13055211  .00010516  00000+0  37065-3 0  9994,2 47688  97.3915 197.8198 0008780 159.4661 200.6934 15.29427610129224,15.2942761,0.000878,LEO
47691,YAOGAN-31 G,2021,107.04,-1.0,+,63.41,Active,1,LEO,PRC,China,Military,Earth Observation,Long March,1 47691U 21014A   23139.71048281 -.00000020  00000+0  11656-3 0  9998,2 47691  63.4064 206.2310 0076688 354.9383   5.0860 13.45262254109593,13.45262254,0.0076688,LEO
47692,OBJECT B,2021,107.15,-1.0,UNK,63.41,Inactive,0,LEO,PRC,China,Unknown,Unknown,Unknown,1 47692U 21014B   23139.69712379  .00000029  00000+0  20250-3 0  9990,2 47692  63.4083 211.6663 0071150 356.1415   3.9053 13.43884818109466,13.43884818,0.007115,LEO
47693,YAOGAN-31 H,2021,107.04,-1.0,+,63.41,Active,1,LEO,PRC,China,Military,Earth Observation,Long March,1 47693U 21014C   23139.71046850 -.00000020  00000+0  11596-3 0  9993,2 47693  63.4073 207.1840 0076856 354.8152   5.2070 13.45261877109565,13.45261877,0.0076856,LEO
47695,YAOGAN-31 J,2021,107.04,-1.0,+,63.41,Active,1,LEO,PRC,China,Military,Earth Observation,Long March,1 47695U 21014E   23139.71028014 -.00000013  00000+0  12886-3 0  9992,2 47695  63.4056 206.1787 0076804 355.0485   4.9773 13.45262371109580,13.45262371,0.0076804,LEO
47698,FLOCK 4S-41,2021,94.17,4.0,+,97.4,Active,1,LEO,USA,USA,Commercial,Earth Observation,Falcon,1 47698U 21006ER  23139.15105713  .00010686  00000+0  37684-3 0  9995,2 47698  97.3973 198.6273 0007773 172.3222 187.8138 15.29414993128276,15.29414993,0.0007773,LEO
47699,AMAZONIA 1,2021,99.94,637.0,+,98.43,Active,1,LEO,India,Brazil,Government,Earth Observation,PSLV,1 47699U 21015A   23139.17274134  .00000248  00000+0  90945-4 0  9995,2 47699  98.4286 216.8170 0001818  87.0572 273.0825 14.40797645116648,14.40797645,0.0001818,LEO
47701,SAI-1 NANOCONNECT-2,2021,93.18,3.0,+,97.39,Active,1,LEO,India,USA,Civil,Technology Development,PSLV,1 47701U 21015C   23139.15742005  .00036929  00000+0  75738-3 0  9991,2 47701  97.3869 221.8610 0006051 334.3964  25.6985 15.45943292123664,15.45943292,0.0006051,LEO
47702,SINE (SINDHUNETRA),2021,93.3,-1.0,+,97.39,Active,0,LEO,India,India,Unknown,Unknown,Unknown,1 47702U 21015D   23138.80693029  .00030499  00000+0  66891-3 0  9990,2 47702  97.3931 221.1446 0006155 331.9095  28.1820 15.44002602123541,15.44002602,0.0006155,LEO
47719,ARKTIKA-M 1,2021,717.83,2200.0,+,63.14,Active,1,MEO,Kazakhstan,Russia/USSR,Government,Earth Observation,Soyuz,1 47719U 21016A   23138.45700514  .00000195  00000+0  00000+0 0  9994,2 47719  63.1470 195.9562 6894367 269.8733  17.9135  2.00605571 16222,2.00605571,0.6894367,MEO
47721,SDSAT,2021,92.22,-1.0,+,97.38,Active,0,LEO,India,India,Unknown,Unknown,PSLV,1 47721U 21015V   23139.18956882  .00127103  00000+0  13501-2 0  9990,2 47721  97.3826 223.1760 0007006 258.7998 101.2473 15.63616265123713,15.63616265,0.0007006,LEO
47722,STARLINK-2068,2021,95.59,260.0,+,53.05,Active,1,LEO,USA,USA,Commercial,Communications,Falcon,1 47722U 21017A   23139.67383240 -.00000297  00000+0 -10404-5 0  9997,2 47722  53.0557 118.3307 0001433  94.5249 265.5904 15.06395599122813,15.06395599,0.0001433,LEO
47723,STARLINK-2107,2021,95.59,260.0,+,53.05,Active,1,LEO,USA,USA,Commercial,Communications,Falcon,1 47723U 21017B   23139.74798737  .00003941  00000+0  28328-3 0  9996,2 47723  53.0548  52.7553 0001573 104.1047 256.0117 15.06406479123730,15.06406479,0.0001573,LEO
47724,STARLINK-2116,2021,95.59,260.0,+,53.05,Active,1,LEO,USA,USA,Commercial,Communications,Falcon,1 47724U 21017C   23139.78485164  .00010186  00000+0  70180-3 0  9990,2 47724  53.0546  52.5924 0001278  82.5992 277.5142 15.06396481123736,15.06396481,0.0001278,LEO
47725,STARLINK-2125,2021,95.59,260.0,+,53.05,Active,1,LEO,USA,USA,Commercial,Communications,Falcon,1 47725U 21017D   23139.68624187  .00000208  00000+0  32881-4 0  9991,2 47725  53.0538 123.0393 0001113  88.6501 271.4615 15.06399796122743,15.06399796,0.0001113,LEO
47726,STARLINK-2126,2021,95.59,260.0,+,53.05,Active,1,LEO,USA,USA,Commercial,Communications,Falcon,1 47726U 21017E   23139.67149979  .00001045  00000+0  89004-4 0  9991,2 47726  53.0545 123.0979 0001363  89.0299 271.0846 15.06401189122740,15.06401189,0.0001363,LEO
47727,STARLINK-2129,2021,95.59,260.0,+,53.05,Active,1,LEO,USA,USA,Commercial,Communications,Falcon,1 47727U 21017F   23139.75534167  .00006448  00000+0  45123-3 0  9993,2 47727  53.0551  42.7249 0001186  95.9012 264.2112 15.06408976123873,15.06408976,0.0001186,LEO
47728,STARLINK-2131,2021,95.59,260.0,+,53.05,Active,1,LEO,USA,USA,Commercial,Communications,Falcon,1 47728U 21017G   23139.64569704  .00000477  00000+0  50924-4 0  9999,2 47728  53.0548 123.2209 0001329  84.9869 275.1271 15.06402834122747,15.06402834,0.0001329,LEO
47729,STARLINK-2132,2021,95.59,260.0,+,53.05,Active,1,LEO,USA,USA,Commercial,Communications,Falcon,1 47729U 21017H   23139.21032781  .00015295  00000+0  10429-2 0  9991,2 47729  53.0542  70.3743 0001100  93.8276 266.2839 15.06420400123454,15.064204,0.00011,LEO
47730,STARLINK-2140,2021,95.59,260.0,+,53.05,Active,1,LEO,USA,USA,Commercial,Communications,Falcon,1 47730U 21017J   23139.27019926  .00000683  00000+0  64723-4 0  9998,2 47730  53.0540 139.9164 0001263  87.0577 273.0557 15.06403108122472,15.06403108,0.0001263,LEO
47731,STARLINK-2141,2021,95.59,260.0,+,53.05,Active,1,LEO,USA,USA,Commercial,Communications,Falcon,1 47731U 21017K   23139.67426416  .00000045  00000+0  21901-4 0  9992,2 47731  53.0540 133.0863 0001258  83.7111 276.4022 15.06398722122609,15.06398722,0.0001258,LEO
47732,STARLINK-2142,2021,95.59,260.0,+,53.05,Active,1,LEO,USA,USA,Commercial,Communications,Falcon,1 47732U 21017L   23138.18748765  .00004002  00000+0  28737-3 0  9992,2 47732  53.0567  55.0041 0001198 108.2171 251.8948 15.06404817124207,15.06404817,0.0001198,LEO
47733,STARLINK-2143,2021,95.59,260.0,+,53.05,Active,1,LEO,USA,USA,Commercial,Communications,Falcon,1 47733U 21017M   23139.72863427  .00000823  00000+0  74153-4 0  9998,2 47733  53.0545 142.8465 0001261  89.8685 270.2449 15.06402007122471,15.06402007,0.0001261,LEO
47734,STARLINK-2144,2021,95.59,260.0,+,53.05,Active,1,LEO,USA,USA,Commercial,Communications,Falcon,1 47734U 21017N   23139.28355340  .00000487  00000+0  51576-4 0  9990,2 47734  53.0538 134.8408 0001300  89.8180 270.2958 15.06404922122547,15.06404922,0.00013,LEO
47735,STARLINK-2146,2021,95.59,260.0,+,53.05,Active,1,LEO,USA,USA,Commercial,Communications,Falcon,1 47735U 21017P   23139.76413009  .00003530  00000+0  25570-3 0  9997,2 47735  53.0546  57.8464 0001604 105.6966 254.4200 15.06408384123663,15.06408384,0.0001604,LEO
47736,STARLINK-2147,2021,95.59,-1.0,+,53.05,Active,0,LEO,USA,USA,Unknown,Unknown,Falcon,1 47736U 21017Q   23138.98593252 -.00000231  00000+0  33545-5 0  9999,2 47736  53.0534 126.1771 0001282  83.6273 276.4862 15.06395309122647,15.06395309,0.0001282,LEO
47737,STARLINK-2148,2021,93.77,260.0,P,53.05,Active,1,LEO,USA,USA,Commercial,Communications,Falcon,1 47737U 21017R   23139.63006912  .00001695  00000+0  58880-4 0  9997,2 47737  53.0552 335.0472 0000924  86.0989 274.0118 15.35742943124833,15.35742943,9.24e-05,LEO
47738,STARLINK-2149,2021,95.59,260.0,+,53.05,Active,1,LEO,USA,USA,Commercial,Communications,Falcon,1 47738U 21017S   23138.96014338  .00000744  00000+0  68848-4 0  9993,2 47738  53.0546 126.5691 0001203  85.4097 274.7029 15.06401526122638,15.06401526,0.0001203,LEO
47739,STARLINK-2150,2021,95.59,260.0,+,53.05,Active,1,LEO,USA,USA,Commercial,Communications,Falcon,1 47739U 21017T   23139.31350694  .00000987  00000+0  85123-4 0  9996,2 47739  53.0539 149.7054 0001230  90.6571 269.4559 15.06405556122340,15.06405556,0.000123,LEO
47740,STARLINK-2152,2021,95.59,260.0,+,53.05,Active,1,LEO,USA,USA,Commercial,Communications,Falcon,1 47740U 21017U   23138.69749485  .00001188  00000+0  98613-4 0  9990,2 47740  53.0542 137.4722 0001238  96.2816 263.8314 15.06401530123137,15.0640153,0.0001238,LEO
47741,STARLINK-2154,2021,95.59,260.0,+,53.05,Active,1,LEO,USA,USA,Commercial,Communications,Falcon,1 47741U 21017V   23139.30935188 -.00004155  00000+0 -26009-3 0  9995,2 47741  53.0550 134.7299 0001498  88.4357 271.6803 15.06411209122556,15.06411209,0.0001498,LEO
47742,STARLINK-2156,2021,95.59,260.0,+,53.05,Active,1,LEO,USA,USA,Commercial,Communications,Falcon,1 47742U 21017W   23139.65307089  .00000120  00000+0  26938-4 0  9995,2 47742  53.0540 123.1816 0001215  79.1843 280.9283 15.06400749122740,15.06400749,0.0001215,LEO
47743,STARLINK-2157,2021,95.59,260.0,+,53.05,Active,1,LEO,USA,USA,Commercial,Communications,Falcon,1 47743U 21017X   23139.67887288  .00000179  00000+0  30896-4 0  9994,2 47743  53.0550 123.0717 0001394  94.1589 265.9560 15.06396703122748,15.06396703,0.0001394,LEO
47744,STARLINK-2158,2021,95.59,260.0,+,53.05,Active,1,LEO,USA,USA,Commercial,Communications,Falcon,1 47744U 21017Y   23139.65211988 -.00000533  00000+0 -16918-4 0  9996,2 47744  53.0528 123.1408 0001237  81.5387 278.5742 15.06403269122742,15.06403269,0.0001237,LEO
